ONEWEB-0503             
1 54121U 22138J   23059.26094071 -.00000382  00000+0 -98676-3 0  9990
2 54121  87.9296 184.5756 0001462  93.8498 266.2801 13.19725873 18769
ONEWEB-0503             
1 54121U 22138J   23059.41257464 -.00000417  00000+0 -10730-2 0  9997
2 54121  87.9297 184.5456 0001462  94.0578 266.0722 13.19725427 17910
ONEWEB-0503             
1 54121U 22138J   23059.86747680 -.00000559  00000+0 -14290-2 0  9992
2 54121  87.9296 184.4556 0001474  94.1957 265.9344 13.19724443 17975
ONEWEB-0503             
1 54121U 22138J   23060.39819316 -.00000404  00000+0 -10418-2 0  9995
2 54121  87.9297 184.3507 0001476  94.2231 265.9071 13.19725777 18912
ONEWEB-0503             
1 54121U 22138J   23060.85309614 -.00000107  00000+0 -29981-3 0  9997
2 54121  87.9299 184.2606 0001448  95.0679 265.0619 13.19722187 18109
ONEWEB-0503             
1 54121U 22138J   23061.38381392  .00000094  00000+0  20265-3 0  9998
2 54121  87.9298 184.1556 0001453  95.8189 264.3110 13.19722791 18177
ONEWEB-0503             
1 54121U 22138J   23062.36943464  .00000077  00000+0  16053-3 0  9992
2 54121  87.9300 183.9608 0001431  96.0716 264.0580 13.19723135 18307
ONEWEB-0503             
1 54121U 22138J   23062.36943464  .00000077  00000+0  16053-3 0  9992
2 54121  87.9300 183.9608 0001431  96.0716 264.0580 13.19723135 19173
